COSMOS 1933             
1 18958U 88020A   26035.43184517  .00005236  00000+0  25839-3 0  9993
2 18958  82.5127 283.8147 0003471 340.2832  19.8267 15.17690291 45180
SL-3 R/B                
1 19046U 88032B   26035.48092445  .00007236  00000+0  34142-3 0  9997
2 19046  97.5148  18.8733 0026048 354.3786   5.7152 15.19466086 47065
SL-16 R/B               
1 19120U 88039B   26035.51049500  .00000009  00000+0  27114-4 0  9998
2 19120  71.0152 138.7071 0020742  25.3023 334.9113 14.19611408953677
COSMOS 1953             
1 19210U 88050A   26035.49314101  .00010237  00000+0  37497-3 0  9998
2 19210  82.5088 191.6103 0010502 238.7218 121.2993 15.27830669 32713
SL-8 R/B                
1 19257U 88053B   26035.49363379  .00000273  00000+0  97046-4 0  9999
2 19257  74.0477 173.6486 0020210 359.3513  65.4827 14.38895066971823
COSMOS 1975             
1 19573U 88093A   26035.38697486  .00009932  00000+0  36782-3 0  9991
2 19573  82.5227 151.0896 0010376 289.4969  70.5149 15.27467204 14321
SL-14 R/B               
1 19574U 88093B   26035.53429125  .00000517  00000+0  56658-4 0  9997
2 19574  82.5283  73.1773 0021627 144.4102 328.3961 14.85619229996113
SL-16 R/B               
1 19650U 88102B   26035.49455411 -.00000061  00000+0 -68497-5 0  9996
2 19650  70.9970 221.3389 0012247  56.5423 303.6869 14.16145922922197
INTERCOSMOS 24          
1 20261U 89080A   26035.36350221  .00000594  00000+0  17062-3 0  9990
2 20261  82.6071 126.0937 1188300  10.1996 352.1060 12.59512286662600
SL-14 R/B               
1 20262U 89080C   26035.50868253  .00000386  00000+0  11704-3 0  9992
2 20262  82.5938 194.4879 1229417 260.6341  85.4019 12.50454233656002
DELTA 1 R/B             
1 20323U 89089B   26035.51191293  .00000458  00000+0  12231-3 0  9999
2 20323  97.0728 248.2221 0067947 226.7734 132.7779 14.50634004890921
ARIANE 40 R/B           
1 20443U 90005H   26035.45755705  .00000330  00000+0  11845-3 0  9998
2 20443  98.3153  97.0970 0009075 308.7730  51.2648 14.39847448888029
