CCSDS_OMM_VERS = 2.0
CREATION_DATE  = 
ORIGINATOR     = 

OBJECT_NAME    = COSMOS 1933
OBJECT_ID      = 1988-020A
CENTER_NAME    = EARTH
REF_FRAME      = TEME
TIME_SYSTEM    = UTC
MEAN_ELEMENT_THEORY = SGP/SGP4

EPOCH          = 2026-02-04T10:21:51.422688
MEAN_MOTION    = 15.17690291
ECCENTRICITY   = .0003471
INCLINATION    = 82.5127
RA_OF_ASC_NODE = 283.8147
ARG_OF_PERICENTER = 340.2832
MEAN_ANOMALY   = 19.8267

EPHEMERIS_TYPE = 0
CLASSIFICATION_TYPE = U
NORAD_CAT_ID   = 18958
ELEMENT_SET_NO = 999
REV_AT_EPOCH   = 4518
BSTAR          = .25839E-3
MEAN_MOTION_DOT = .5236E-4
MEAN_MOTION_DDOT = 0

CCSDS_OMM_VERS = 2.0
CREATION_DATE  = 
ORIGINATOR     = 

OBJECT_NAME    = SL-3 R/B
OBJECT_ID      = 1988-032B
CENTER_NAME    = EARTH
REF_FRAME      = TEME
TIME_SYSTEM    = UTC
MEAN_ELEMENT_THEORY = SGP/SGP4

EPOCH          = 2026-02-04T11:32:31.872480
MEAN_MOTION    = 15.19466086
ECCENTRICITY   = .0026048
INCLINATION    = 97.5148
RA_OF_ASC_NODE = 18.8733
ARG_OF_PERICENTER = 354.3786
MEAN_ANOMALY   = 5.7152

EPHEMERIS_TYPE = 0
CLASSIFICATION_TYPE = U
NORAD_CAT_ID   = 19046
ELEMENT_SET_NO = 999
REV_AT_EPOCH   = 4706
BSTAR          = .34142E-3
MEAN_MOTION_DOT = .7236E-4
MEAN_MOTION_DDOT = 0

CCSDS_OMM_VERS = 2.0
CREATION_DATE  = 
ORIGINATOR     = 

OBJECT_NAME    = SL-16 R/B
OBJECT_ID      = 1988-039B
CENTER_NAME    = EARTH
REF_FRAME      = TEME
TIME_SYSTEM    = UTC
MEAN_ELEMENT_THEORY = SGP/SGP4

EPOCH          = 2026-02-04T12:15:06.768000
MEAN_MOTION    = 14.19611408
ECCENTRICITY   = .0020742
INCLINATION    = 71.0152
RA_OF_ASC_NODE = 138.7071
ARG_OF_PERICENTER = 25.3023
MEAN_ANOMALY   = 334.9113

EPHEMERIS_TYPE = 0
CLASSIFICATION_TYPE = U
NORAD_CAT_ID   = 19120
ELEMENT_SET_NO = 999
REV_AT_EPOCH   = 95367
BSTAR          = .27114E-4
MEAN_MOTION_DOT = .9E-7
MEAN_MOTION_DDOT = 0

CCSDS_OMM_VERS = 2.0
CREATION_DATE  = 
ORIGINATOR     = 

OBJECT_NAME    = COSMOS 1953
OBJECT_ID      = 1988-050A
CENTER_NAME    = EARTH
REF_FRAME      = TEME
TIME_SYSTEM    = UTC
MEAN_ELEMENT_THEORY = SGP/SGP4

EPOCH          = 2026-02-04T11:50:07.383264
MEAN_MOTION    = 15.27830669
ECCENTRICITY   = .0010502
INCLINATION    = 82.5088
RA_OF_ASC_NODE = 191.6103
ARG_OF_PERICENTER = 238.7218
MEAN_ANOMALY   = 121.2993

EPHEMERIS_TYPE = 0
CLASSIFICATION_TYPE = U
NORAD_CAT_ID   = 19210
ELEMENT_SET_NO = 999
REV_AT_EPOCH   = 3271
BSTAR          = .37497E-3
MEAN_MOTION_DOT = .10237E-3
MEAN_MOTION_DDOT = 0

CCSDS_OMM_VERS = 2.0
CREATION_DATE  = 
ORIGINATOR     = 

OBJECT_NAME    = SL-8 R/B
OBJECT_ID      = 1988-053B
CENTER_NAME    = EARTH
REF_FRAME      = TEME
TIME_SYSTEM    = UTC
MEAN_ELEMENT_THEORY = SGP/SGP4

EPOCH          = 2026-02-04T11:50:49.959456
MEAN_MOTION    = 14.38895066
ECCENTRICITY   = .002021
INCLINATION    = 74.0477
RA_OF_ASC_NODE = 173.6486
ARG_OF_PERICENTER = 359.3513
MEAN_ANOMALY   = 65.4827

EPHEMERIS_TYPE = 0
CLASSIFICATION_TYPE = U
NORAD_CAT_ID   = 19257
ELEMENT_SET_NO = 999
REV_AT_EPOCH   = 97182
BSTAR          = .97046E-4
MEAN_MOTION_DOT = .273E-5
MEAN_MOTION_DDOT = 0

CCSDS_OMM_VERS = 2.0
CREATION_DATE  = 
ORIGINATOR     = 

OBJECT_NAME    = COSMOS 1975
OBJECT_ID      = 1988-093A
CENTER_NAME    = EARTH
REF_FRAME      = TEME
TIME_SYSTEM    = UTC
MEAN_ELEMENT_THEORY = SGP/SGP4

EPOCH          = 2026-02-04T09:17:14.627904
MEAN_MOTION    = 15.27467204
ECCENTRICITY   = .0010376
INCLINATION    = 82.5227
RA_OF_ASC_NODE = 151.0896
ARG_OF_PERICENTER = 289.4969
MEAN_ANOMALY   = 70.5149

EPHEMERIS_TYPE = 0
CLASSIFICATION_TYPE = U
NORAD_CAT_ID   = 19573
ELEMENT_SET_NO = 999
REV_AT_EPOCH   = 1432
BSTAR          = .36782E-3
MEAN_MOTION_DOT = .9932E-4
MEAN_MOTION_DDOT = 0

CCSDS_OMM_VERS = 2.0
CREATION_DATE  = 
ORIGINATOR     = 

OBJECT_NAME    = SL-14 R/B
OBJECT_ID      = 1988-093B
CENTER_NAME    = EARTH
REF_FRAME      = TEME
TIME_SYSTEM    = UTC
MEAN_ELEMENT_THEORY = SGP/SGP4

EPOCH          = 2026-02-04T12:49:22.764000
MEAN_MOTION    = 14.85619229
ECCENTRICITY   = .0021627
INCLINATION    = 82.5283
RA_OF_ASC_NODE = 73.1773
ARG_OF_PERICENTER = 144.4102
MEAN_ANOMALY   = 328.3961

EPHEMERIS_TYPE = 0
CLASSIFICATION_TYPE = U
NORAD_CAT_ID   = 19574
ELEMENT_SET_NO = 999
REV_AT_EPOCH   = 99611
BSTAR          = .56658E-4
MEAN_MOTION_DOT = .517E-5
MEAN_MOTION_DDOT = 0

CCSDS_OMM_VERS = 2.0
CREATION_DATE  = 
ORIGINATOR     = 

OBJECT_NAME    = SL-16 R/B
OBJECT_ID      = 1988-102B
CENTER_NAME    = EARTH
REF_FRAME      = TEME
TIME_SYSTEM    = UTC
MEAN_ELEMENT_THEORY = SGP/SGP4

EPOCH          = 2026-02-04T11:52:09.475104
MEAN_MOTION    = 14.16145922
ECCENTRICITY   = .0012247
INCLINATION    = 70.9970
RA_OF_ASC_NODE = 221.3389
ARG_OF_PERICENTER = 56.5423
MEAN_ANOMALY   = 303.6869

EPHEMERIS_TYPE = 0
CLASSIFICATION_TYPE = U
NORAD_CAT_ID   = 19650
ELEMENT_SET_NO = 999
REV_AT_EPOCH   = 92219
BSTAR          = -.68497E-5
MEAN_MOTION_DOT = -.61E-6
MEAN_MOTION_DDOT = 0

CCSDS_OMM_VERS = 2.0
CREATION_DATE  = 
ORIGINATOR     = 

OBJECT_NAME    = INTERCOSMOS 24
OBJECT_ID      = 1989-080A
CENTER_NAME    = EARTH
REF_FRAME      = TEME
TIME_SYSTEM    = UTC
MEAN_ELEMENT_THEORY = SGP/SGP4

EPOCH          = 2026-02-04T08:43:26.590944
MEAN_MOTION    = 12.59512286
ECCENTRICITY   = .11883
INCLINATION    = 82.6071
RA_OF_ASC_NODE = 126.0937
ARG_OF_PERICENTER = 10.1996
MEAN_ANOMALY   = 352.1060

EPHEMERIS_TYPE = 0
CLASSIFICATION_TYPE = U
NORAD_CAT_ID   = 20261
ELEMENT_SET_NO = 999
REV_AT_EPOCH   = 66260
BSTAR          = .17062E-3
MEAN_MOTION_DOT = .594E-5
MEAN_MOTION_DDOT = 0

CCSDS_OMM_VERS = 2.0
CREATION_DATE  = 
ORIGINATOR     = 

OBJECT_NAME    = SL-14 R/B
OBJECT_ID      = 1989-080C
CENTER_NAME    = EARTH
REF_FRAME      = TEME
TIME_SYSTEM    = UTC
MEAN_ELEMENT_THEORY = SGP/SGP4

EPOCH          = 2026-02-04T12:12:30.170592
MEAN_MOTION    = 12.50454233
ECCENTRICITY   = .1229417
INCLINATION    = 82.5938
RA_OF_ASC_NODE = 194.4879
ARG_OF_PERICENTER = 260.6341
MEAN_ANOMALY   = 85.4019

EPHEMERIS_TYPE = 0
CLASSIFICATION_TYPE = U
NORAD_CAT_ID   = 20262
ELEMENT_SET_NO = 999
REV_AT_EPOCH   = 65600
BSTAR          = .11704E-3
MEAN_MOTION_DOT = .386E-5
MEAN_MOTION_DDOT = 0

CCSDS_OMM_VERS = 2.0
CREATION_DATE  = 
ORIGINATOR     = 

OBJECT_NAME    = DELTA 1 R/B
OBJECT_ID      = 1989-089B
CENTER_NAME    = EARTH
REF_FRAME      = TEME
TIME_SYSTEM    = UTC
MEAN_ELEMENT_THEORY = SGP/SGP4

EPOCH          = 2026-02-04T12:17:09.277152
MEAN_MOTION    = 14.50634004
ECCENTRICITY   = .0067947
INCLINATION    = 97.0728
RA_OF_ASC_NODE = 248.2221
ARG_OF_PERICENTER = 226.7734
MEAN_ANOMALY   = 132.7779

EPHEMERIS_TYPE = 0
CLASSIFICATION_TYPE = U
NORAD_CAT_ID   = 20323
ELEMENT_SET_NO = 999
REV_AT_EPOCH   = 89092
BSTAR          = .12231E-3
MEAN_MOTION_DOT = .458E-5
MEAN_MOTION_DDOT = 0

CCSDS_OMM_VERS = 2.0
CREATION_DATE  = 
ORIGINATOR     = 

OBJECT_NAME    = ARIANE 40 R/B
OBJECT_ID      = 1990-005H
CENTER_NAME    = EARTH
REF_FRAME      = TEME
TIME_SYSTEM    = UTC
MEAN_ELEMENT_THEORY = SGP/SGP4

EPOCH          = 2026-02-04T10:58:52.929120
MEAN_MOTION    = 14.39847448
ECCENTRICITY   = .0009075
INCLINATION    = 98.3153
RA_OF_ASC_NODE = 97.0970
ARG_OF_PERICENTER = 308.7730
MEAN_ANOMALY   = 51.2648

EPHEMERIS_TYPE = 0
CLASSIFICATION_TYPE = U
NORAD_CAT_ID   = 20443
ELEMENT_SET_NO = 999
REV_AT_EPOCH   = 88802
BSTAR          = .11845E-3
MEAN_MOTION_DOT = .33E-5
MEAN_MOTION_DDOT = 0

